OBJECT_NAME,OBJECT_ID,EPOCH,MEAN_MOTION,ECCENTRICITY,INCLINATION,RA_OF_ASC_NODE,ARG_OF_PERICENTER,MEAN_ANOMALY,EPHEMERIS_TYPE,CLASSIFICATION_TYPE,NORAD_CAT_ID,ELEMENT_SET_NO,REV_AT_EPOCH,BSTAR,MEAN_MOTION_DOT,MEAN_MOTION_DDOT
IRIDIUM 154,2018-061F,2026-07-04T21:11:34.353600,14.34217810,.00021455,86.3946,49.4062,89.4145,270.7297,0,U,43574,999,41594,-.3192758E-5,.11E-6,0
IRIDIUM 163,2018-061G,2026-07-04T20:44:10.419072,14.34217841,.00021439,86.3945,49.3291,84.3014,275.8426,0,U,43575,999,41591,.79596E-7,.2E-6,0
IRIDIUM 156,2018-061H,2026-07-04T08:24:22.381920,14.34217586,.00020244,86.3945,49.5510,89.3205,270.8223,0,U,43576,999,41583,.50403167E-4,.161E-5,0
IRIDIUM 164,2018-061J,2026-07-04T21:20:42.432000,14.34218125,.00022721,86.3945,49.3662,89.5125,270.6332,0,U,43577,999,41595,.15593272E-4,.63E-6,0
IRIDIUM 159,2018-061K,2026-07-04T20:35:02.426208,14.34218125,.00022055,86.3945,49.3160,84.4236,275.7211,0,U,43578,999,41591,.13905574E-4,.59E-6,0
IRIDIUM 180,2019-002A,2026-07-04T17:13:22.825920,14.34219169,.00021979,86.3982,346.2681,89.2159,270.9288,0,U,43922,999,39150,.13018989E-3,.384E-5,0
IRIDIUM 176,2019-002B,2026-07-04T21:34:00.435360,14.72239979,.00023598,86.6102,346.1334,88.2627,271.8860,0,U,43923,999,40185,.16304211E-3,.1052E-4,0
IRIDIUM 168,2019-002C,2026-07-04T17:04:14.629152,14.34217474,.00022067,86.3985,346.3486,90.2493,269.8956,0,U,43924,999,39148,.1723459E-5,.25E-6,0
IRIDIUM 173,2019-002D,2026-07-04T21:47:22.864128,14.34218393,.00021465,86.3982,346.1547,89.6526,270.4916,0,U,43925,999,39149,.30443829E-4,.105E-5,0
IRIDIUM 169,2019-002E,2026-07-04T18:43:36.825312,14.38612802,.0001658,86.4219,17.8361,92.1767,267.9621,0,U,43926,999,39275,.12813637E-3,.412E-5,0
IRIDIUM 172,2019-002F,2026-07-04T16:36:50.858784,14.34218640,.00022053,86.3981,346.2528,89.2359,270.9089,0,U,43927,999,39147,.53186352E-4,.169E-5,0
IRIDIUM 175,2019-002G,2026-07-04T06:11:26.098080,14.43622605,.00045106,86.4518,283.3855,137.4528,222.7023,0,U,43928,999,40144,.1085962E-3,.388E-5,0
IRIDIUM 171,2019-002H,2026-07-04T17:49:54.882912,14.34218309,.0002164,86.3991,346.5396,94.6042,265.5401,0,U,43929,999,39147,.28725913E-4,.1E-5,0
IRIDIUM 170,2019-002J,2026-07-04T21:42:53.869824,14.72240492,.00023908,86.6101,346.1331,84.7520,275.3970,0,U,43930,999,40186,.16293676E-3,.1052E-4,0
IRIDIUM 167,2019-002K,2026-07-04T21:01:42.844512,14.34218174,.00020862,86.3982,346.1982,98.8851,261.2582,0,U,43931,999,39149,.17899935E-4,.7E-6,0
IRIDIUM 181,2023-068S,2026-07-04T20:30:52.761312,14.43308622,.00024956,86.4485,49.4035,86.1797,273.9689,0,U,56726,999,16498,.88956984E-4,.32E-5,0
IRIDIUM 177,2023-068T,2026-07-04T15:06:47.571264,14.80016278,.00021251,86.1979,320.5087,91.8553,268.2911,0,U,56727,999,16894,.15418599E-3,.1192E-4,0
IRIDIUM 174,2023-068U,2026-07-04T21:25:03.888768,14.72248761,.00021668,86.6110,346.2875,80.6842,279.4620,0,U,56728,999,16862,.17080235E-3,.1102E-4,0
IRIDIUM 178,2023-068V,2026-07-04T19:42:58.974624,14.80022424,.00023221,86.6532,17.9892,86.1328,274.0159,0,U,56729,999,16897,.17074447E-3,.1317E-4,0
IRIDIUM 179,2023-068W,2026-07-04T13:05:53.667456,14.80025245,.00022441,86.6767,27.1358,89.4078,270.7401,0,U,56730,999,16893,.15634264E-3,.1208E-4,0
