IRIDIUM 154             
1 43574U 18061F   26185.88303650  .00000011  00000+0 -31928-5 0  9994
2 43574  86.3946  49.4062 0002145  89.4145 270.7297 14.34217810415947
IRIDIUM 163             
1 43575U 18061G   26185.86400948  .00000020  00000+0  79596-7 0  9995
2 43575  86.3945  49.3291 0002143  84.3014 275.8426 14.34217841415918
IRIDIUM 156             
1 43576U 18061H   26185.35025905  .00000161  00000+0  50403-4 0  9995
2 43576  86.3945  49.5510 0002024  89.3205 270.8223 14.34217586415837
IRIDIUM 164             
1 43577U 18061J   26185.88938000  .00000063  00000+0  15593-4 0  9995
2 43577  86.3945  49.3662 0002272  89.5125 270.6332 14.34218125415954
IRIDIUM 159             
1 43578U 18061K   26185.85766697  .00000059  00000+0  13906-4 0  9995
2 43578  86.3945  49.3160 0002205  84.4236 275.7211 14.34218125415919
IRIDIUM 180             
1 43922U 19002A   26185.71762530  .00000384  00000+0  13019-3 0  9996
2 43922  86.3982 346.2681 0002197  89.2159 270.9288 14.34219169391505
IRIDIUM 176             
1 43923U 19002B   26185.89861615  .00001052  00000+0  16304-3 0  9993
2 43923  86.6102 346.1334 0002359  88.2627 271.8860 14.72239979401855
IRIDIUM 168             
1 43924U 19002C   26185.71128043  .00000025  00000+0  17235-5 0  9991
2 43924  86.3985 346.3486 0002206  90.2493 269.8956 14.34217474391481
IRIDIUM 173             
1 43925U 19002D   26185.90790352  .00000105  00000+0  30444-4 0  9996
2 43925  86.3982 346.1547 0002146  89.6526 270.4916 14.34218393391493
IRIDIUM 169             
1 43926U 19002E   26185.78028733  .00000412  00000+0  12814-3 0  9991
2 43926  86.4219  17.8361 0001658  92.1767 267.9621 14.38612802392758
IRIDIUM 172             
1 43927U 19002F   26185.69225531  .00000169  00000+0  53186-4 0  9994
2 43927  86.3981 346.2528 0002205  89.2359 270.9089 14.34218640391479
IRIDIUM 175             
1 43928U 19002G   26185.25794095  .00000388  00000+0  10860-3 0  9997
2 43928  86.4518 283.3855 0004510 137.4528 222.7023 14.43622605401448
IRIDIUM 171             
1 43929U 19002H   26185.74299633  .00000100  00000+0  28726-4 0  9993
2 43929  86.3991 346.5396 0002164  94.6042 265.5401 14.34218309391471
IRIDIUM 170             
1 43930U 19002J   26185.90479016  .00001052  00000+0  16294-3 0  9991
2 43930  86.6101 346.1331 0002390  84.7520 275.3970 14.72240492401861
IRIDIUM 167             
1 43931U 19002K   26185.87619033  .00000070  00000+0  17900-4 0  9998
2 43931  86.3982 346.1982 0002086  98.8851 261.2582 14.34218174391493
IRIDIUM 181             
1 56726U 23068S   26185.85477733  .00000320  00000+0  88957-4 0  9996
2 56726  86.4485  49.4035 0002495  86.1797 273.9689 14.43308622164981
IRIDIUM 177             
1 56727U 23068T   26185.62971726  .00001192  00000+0  15419-3 0  9993
2 56727  86.1979 320.5087 0002125  91.8553 268.2911 14.80016278168949
IRIDIUM 174             
1 56728U 23068U   26185.89240612  .00001102  00000+0  17080-3 0  9993
2 56728  86.6110 346.2875 0002166  80.6842 279.4620 14.72248761168625
IRIDIUM 178             
1 56729U 23068V   26185.82151591  .00001317  00000+0  17074-3 0  9995
2 56729  86.6532  17.9892 0002322  86.1328 274.0159 14.80022424168970
IRIDIUM 179             
1 56730U 23068W   26185.54576004  .00001208  00000+0  15634-3 0  9995
2 56730  86.6767  27.1358 0002244  89.4078 270.7401 14.80025245168936
